{"fetched_at":"2026-03-29T16:36:15Z","count":15609,"tles":[{"name":"ICEYE-X36","line1":"1 59103U 24043F   26087.88438622  .00005657  00000+0  39059-3 0  9996","line2":"2 59103  97.8227 224.6372 0005320 220.6220 139.4610 15.06172246113053","category":"Other"}]}